{"type": "FeatureCollection", "features": [ {"type": "Feature", "properties": {"norad_id": 42987, "name": "SKYSAT-C11", "group": "resource", "lat": 61.54410752522132, "lon": 125.65428119508401, "alt_km": 415.61768206752186, "timestamp": "2025-12-27T16:33:29.893483+00:00", "meta": {"OBJECT_NAME": "SKYSAT-C11", "OBJECT_ID": "2017-068A", "EPOCH": "2025-12-27T08:31:58.852128", "MEAN_MOTION": 15.48089596, "ECCENTRICITY": 0.0001167, "INCLINATION": 97.4147, "RA_OF_ASC_NODE": 139.2154, "ARG_OF_PERICENTER": 92.1165, "MEAN_ANOMALY": 268.0219, "EPHEMERIS_TYPE": 0, "CLASSIFICATION_TYPE": "U", "NORAD_CAT_ID": 42987, "ELEMENT_SET_NO": 999, "REV_AT_EPOCH": 45657, "BSTAR": 0.0004832, "MEAN_MOTION_DOT": 0.00025283, "MEAN_MOTION_DDOT": 0}, "tle": {"line1": "1 42987U 17068A   25361.35554227  .00025283  00000+0  48320-3 0  9991", "line2": "2 42987  97.4147 139.2154 0001167  92.1165 268.0219 15.48089596456578"}}, "geometry": {"type": "Point", "coordinates": [125.65428119508401, 61.54410752522132]}}, {"type": "Feature", "properties": {"norad_id": 42988, "name": "SKYSAT-C10", "group": "resource", "lat": 20.449176029717663, "lon": 129.79467753788336, "alt_km": 470.29839509660997, "timestamp": "2025-12-27T16:33:29.893493+00:00", "meta": {"OBJECT_NAME": "SKYSAT-C10", "OBJECT_ID": "2017-068B", "EPOCH": "2025-12-27T02:21:25.171200", "MEAN_MOTION": 15.31645862, "ECCENTRICITY": 0.00035297, "INCLINATION": 97.4265, "RA_OF_ASC_NODE": 131.9896, "ARG_OF_PERICENTER": 96.9567, "MEAN_ANOMALY": 263.2076, "EPHEMERIS_TYPE": 0, "CLASSIFICATION_TYPE": "U", "NORAD_CAT_ID": 42988, "ELEMENT_SET_NO": 999, "REV_AT_EPOCH": 45599, "BSTAR": 0.00037534092, "MEAN_MOTION_DOT": 0.00011398, "MEAN_MOTION_DDOT": 0}, "tle": {"line1": "1 42988U 17068B   25361.09820800  .00011398  00000+0  37534-3 0  9993", "line2": "2 42988  97.4265 131.9896 0003529  96.9567 263.2076 15.31645862455993"}}, "geometry": {"type": "Point", "coordinates": [129.79467753788336, 20.449176029717663]}}, {"type": "Feature", "properties": {"norad_id": 42989, "name": "SKYSAT-C9", "group": "resource", "lat": 82.46632390211977, "lon": 32.22962534333026, "alt_km": 444.90680411466747, "timestamp": "2025-12-27T16:33:29.893503+00:00", "meta": {"OBJECT_NAME": "SKYSAT-C9", "OBJECT_ID": "2017-068C", "EPOCH": "2025-12-27T08:20:52.313280", "MEAN_MOTION": 15.36425529, "ECCENTRICITY": 0.0010171, "INCLINATION": 97.419, "RA_OF_ASC_NODE": 131.7202, "ARG_OF_PERICENTER": 40.5412, "MEAN_ANOMALY": 319.6587, "EPHEMERIS_TYPE": 0, "CLASSIFICATION_TYPE": "U", "NORAD_CAT_ID": 42989, "ELEMENT_SET_NO": 999, "REV_AT_EPOCH": 45632, "BSTAR": 0.00039897, "MEAN_MOTION_DOT": 0.00014127, "MEAN_MOTION_DDOT": 0}, "tle": {"line1": "1 42989U 17068C   25361.34782770  .00014127  00000+0  39897-3 0  9992", "line2": "2 42989  97.4190 131.7202 0010171  40.5412 319.6587 15.36425529456327"}}, "geometry": {"type": "Point", "coordinates": [32.22962534333026, 82.46632390211977]}}, {"type": "Feature", "properties": {"norad_id": 42990, "name": "SKYSAT-C8", "group": "resource", "lat": -71.11967878739001, "lon": -70.66950482030423, "alt_km": 472.74599516264334, "timestamp": "2025-12-27T16:33:29.893513+00:00", "meta": {"OBJECT_NAME": "SKYSAT-C8", "OBJECT_ID": "2017-068D", "EPOCH": "2025-12-27T07:37:42.314304", "MEAN_MOTION": 15.33249066, "ECCENTRICITY": 9.68e-05, "INCLINATION": 97.4286, "RA_OF_ASC_NODE": 131.3845, "ARG_OF_PERICENTER": 251.4246, "MEAN_ANOMALY": 108.6891, "EPHEMERIS_TYPE": 0, "CLASSIFICATION_TYPE": "U", "NORAD_CAT_ID": 42990, "ELEMENT_SET_NO": 999, "REV_AT_EPOCH": 45594, "BSTAR": 0.00042375, "MEAN_MOTION_DOT": 0.00013544, "MEAN_MOTION_DDOT": 0}, "tle": {"line1": "1 42990U 17068D   25361.31785086  .00013544  00000+0  42375-3 0  9991", "line2": "2 42990  97.4286 131.3845 0000968 251.4246 108.6891 15.33249066455943"}}, "geometry": {"type": "Point", "coordinates": [-70.66950482030423, -71.11967878739001]}}, {"type": "Feature", "properties": {"norad_id": 42991, "name": "SKYSAT-C7", "group": "resource", "lat": 73.95144528196701, "lon": 105.81133983025016, "alt_km": 459.05918068267965, "timestamp": "2025-12-27T16:33:29.893523+00:00", "meta": {"OBJECT_NAME": "SKYSAT-C7", "OBJECT_ID": "2017-068E", "EPOCH": "2025-12-27T08:23:41.213184", "MEAN_MOTION": 15.32641795, "ECCENTRICITY": 0.0006679, "INCLINATION": 97.4293, "RA_OF_ASC_NODE": 132.446, "ARG_OF_PERICENTER": 10.1488, "MEAN_ANOMALY": 349.9887, "EPHEMERIS_TYPE": 0, "CLASSIFICATION_TYPE": "U", "NORAD_CAT_ID": 42991, "ELEMENT_SET_NO": 999, "REV_AT_EPOCH": 45601, "BSTAR": 0.00037951, "MEAN_MOTION_DOT": 0.00011897, "MEAN_MOTION_DDOT": 0}, "tle": {"line1": "1 42991U 17068E   25361.34978256  .00011897  00000+0  37951-3 0  9991", "line2": "2 42991  97.4293 132.4460 0006679  10.1488 349.9887 15.32641795456018"}}, "geometry": {"type": "Point", "coordinates": [105.81133983025016, 73.95144528196701]}}, {"type": "Feature", "properties": {"norad_id": 42992, "name": "SKYSAT-C6", "group": "resource", "lat": 32.17008567409746, "lon": -42.07624875667403, "alt_km": 469.5526119459064, "timestamp": "2025-12-27T16:33:29.893533+00:00", "meta": {"OBJECT_NAME": "SKYSAT-C6", "OBJECT_ID": "2017-068F", "EPOCH": "2025-12-26T21:06:12.822048", "MEAN_MOTION": 15.31783145, "ECCENTRICITY": 0.0004677, "INCLINATION": 97.4325, "RA_OF_ASC_NODE": 132.4006, "ARG_OF_PERICENTER": 43.8732, "MEAN_ANOMALY": 316.288, "EPHEMERIS_TYPE": 0, "CLASSIFICATION_TYPE": "U", "NORAD_CAT_ID": 42992, "ELEMENT_SET_NO": 999, "REV_AT_EPOCH": 45592, "BSTAR": 0.00040064, "MEAN_MOTION_DOT": 0.00012227, "MEAN_MOTION_DDOT": 0}, "tle": {"line1": "1 42992U 17068F   25360.87931507  .00012227  00000+0  40064-3 0  9994", "line2": "2 42992  97.4325 132.4006 0004677  43.8732 316.2880 15.31783145455926"}}, "geometry": {"type": "Point", "coordinates": [-42.07624875667403, 32.17008567409746]}}, {"type": "Feature", "properties": {"norad_id": 43111, "name": "CARTOSAT-2F", "group": "resource", "lat": -51.324763152437335, "lon": 68.46676643453694, "alt_km": 516.0609594743037, "timestamp": "2025-12-27T16:33:29.893543+00:00", "meta": {"OBJECT_NAME": "CARTOSAT-2F", "OBJECT_ID": "2018-004A", "EPOCH": "2025-12-27T12:02:40.044768", "MEAN_MOTION": 15.19276291, "ECCENTRICITY": 0.0001632, "INCLINATION": 97.4297, "RA_OF_ASC_NODE": 58.899, "ARG_OF_PERICENTER": 109.3317, "MEAN_ANOMALY": 250.8094, "EPHEMERIS_TYPE": 0, "CLASSIFICATION_TYPE": "U", "NORAD_CAT_ID": 43111, "ELEMENT_SET_NO": 999, "REV_AT_EPOCH": 44126, "BSTAR": 0.00047218, "MEAN_MOTION_DOT": 9.898e-05, "MEAN_MOTION_DDOT": 0}, "tle": {"line1": "1 43111U 18004A   25361.50185237  .00009898  00000+0  47218-3 0  9999", "line2": "2 43111  97.4297  58.8990 0001632 109.3317 250.8094 15.19276291441263"}}, "geometry": {"type": "Point", "coordinates": [68.46676643453694, -51.324763152437335]}}, {"type": "Feature", "properties": {"norad_id": 43259, "name": "GAOFEN-1 02", "group": "resource", "lat": -64.7975256162881, "lon": 77.04832497995577, "alt_km": 649.0202271032158, "timestamp": "2025-12-27T16:33:29.893553+00:00", "meta": {"OBJECT_NAME": "GAOFEN-1 02", "OBJECT_ID": "2018-031A", "EPOCH": "2025-12-27T11:58:39.521856", "MEAN_MOTION": 14.76446158, "ECCENTRICITY": 0.0002762, "INCLINATION": 98.0783, "RA_OF_ASC_NODE": 59.292, "ARG_OF_PERICENTER": 164.9179, "MEAN_ANOMALY": 195.2114, "EPHEMERIS_TYPE": 0, "CLASSIFICATION_TYPE": "U", "NORAD_CAT_ID": 43259, "ELEMENT_SET_NO": 999, "REV_AT_EPOCH": 41736, "BSTAR": 0.00016511, "MEAN_MOTION_DOT": 1.097e-05, "MEAN_MOTION_DDOT": 0}, "tle": {"line1": "1 43259U 18031A   25361.49906854  .00001097  00000+0  16511-3 0  9991", "line2": "2 43259  98.0783  59.2920 0002762 164.9179 195.2114 14.76446158417361"}}, "geometry": {"type": "Point", "coordinates": [77.04832497995577, -64.7975256162881]}}, {"type": "Feature", "properties": {"norad_id": 43260, "name": "GAOFEN-1 03", "group": "resource", "lat": 49.328826338010046, "lon": 49.84508126093979, "alt_km": 637.2824102309278, "timestamp": "2025-12-27T16:33:29.893563+00:00", "meta": {"OBJECT_NAME": "GAOFEN-1 03", "OBJECT_ID": "2018-031B", "EPOCH": "2025-12-27T13:04:46.207200", "MEAN_MOTION": 14.76429504, "ECCENTRICITY": 0.0001674, "INCLINATION": 98.0778, "RA_OF_ASC_NODE": 59.2138, "ARG_OF_PERICENTER": 246.2931, "MEAN_ANOMALY": 113.8103, "EPHEMERIS_TYPE": 0, "CLASSIFICATION_TYPE": "U", "NORAD_CAT_ID": 43260, "ELEMENT_SET_NO": 999, "REV_AT_EPOCH": 41736, "BSTAR": 0.00015755, "MEAN_MOTION_DOT": 1.044e-05, "MEAN_MOTION_DDOT": 0}, "tle": {"line1": "1 43260U 18031B   25361.54497925  .00001044  00000+0  15755-3 0  9994", "line2": "2 43260  98.0778  59.2138 0001674 246.2931 113.8103 14.76429504417369"}}, "geometry": {"type": "Point", "coordinates": [49.84508126093979, 49.328826338010046]}}, {"type": "Feature", "properties": {"norad_id": 43262, "name": "GAOFEN-1 04", "group": "resource", "lat": 0.8429063427641516, "lon": -120.35104323393969, "alt_km": 643.605341860788, "timestamp": "2025-12-27T16:33:29.893575+00:00", "meta": {"OBJECT_NAME": "GAOFEN-1 04", "OBJECT_ID": "2018-031D", "EPOCH": "2025-12-27T12:29:49.178112", "MEAN_MOTION": 14.76436819, "ECCENTRICITY": 4.69e-05, "INCLINATION": 98.0784, "RA_OF_ASC_NODE": 59.36, "ARG_OF_PERICENTER": 69.6265, "MEAN_ANOMALY": 290.4995, "EPHEMERIS_TYPE": 0, "CLASSIFICATION_TYPE": "U", "NORAD_CAT_ID": 43262, "ELEMENT_SET_NO": 999, "REV_AT_EPOCH": 41735, "BSTAR": 0.00018623, "MEAN_MOTION_DOT": 1.243e-05, "MEAN_MOTION_DDOT": 0}, "tle": {"line1": "1 43262U 18031D   25361.52070808  .00001243  00000+0  18623-3 0  9999", "line2": "2 43262  98.0784  59.3600 0000469  69.6265 290.4995 14.76436819417358"}}, "geometry": {"type": "Point", "coordinates": [-120.35104323393969, 0.8429063427641516]}}]}